ATLAS CENTAUR R/B       
1 06155U 72065B   25354.56649220  .00000827  00000+0  11676-3 0  9990
2 06155  35.0023  49.3497 0033287  64.2055 296.2074 14.77428158829559
SL-8 R/B                
1 08459U 75112B   25354.48237932  .00000250  00000+0  90917-4 0  9995
2 08459  74.0590 164.6162 0016667 275.1595  84.7657 14.38150192620480
SL-3 R/B                
1 10114U 77057B   25354.79735432  .00008978  00000+0  20479-3 0  9998
2 10114  97.5683 158.4402 0006988 199.8707 160.2269 15.43124035656150
SEASAT 1                
1 10967U 78064A   25354.84514036  .00000173  00000+0  87030-4 0  9990
2 10967 108.0131 320.0394 0001426 253.4398 106.6591 14.46069206495113
SL-14 R/B               
1 11267U 79011B   25354.56883875  .00000417  00000+0  38789-4 0  9994
2 11267  82.5232 171.6187 0015231 326.5377  33.4879 14.91778184516980
SL-8 R/B                
1 11574U 79089B   25354.81296786  .00000188  00000+0  64851-4 0  9991
2 11574  74.0682 237.0375 0014610  68.0391 292.2317 14.42288509424732
SL-14 R/B               
1 11672U 80005B   25354.06012527  .00000428  00000+0  40816-4 0  9998
2 11672  82.5142  22.7564 0017289  71.2609 289.0485 14.90799473464620
SL-8 R/B                
1 12139U 81003B   25354.77124618  .00011042  00000+0  29166-3 0  9997
2 12139  82.9315   2.8120 0278547  92.6427 270.6716 15.07253097302779
SL-3 R/B                
1 12465U 81046B   25354.75301260  .00007414  00000+0  18552-3 0  9999
2 12465  81.2319  24.3509 0018323 295.3030  64.6313 15.39757737426274
SL-3 R/B                
1 12904U 81103B   25354.82146198  .00004632  00000+0  21160-3 0  9994
2 12904  81.1598 305.8875 0012345 183.6439 176.4705 15.20318763961243
SL-3 R/B                
1 13068U 82013B   25354.80032921  .00003455  00000+0  15280-3 0  9991
2 13068  81.1751 253.1746 0024183  85.0347 275.3644 15.21149932392356
SL-3 R/B                
1 13154U 82039B   25354.79241076  .00001859  00000+0  11325-3 0  9998
2 13154  81.1714 306.8323 0029418 224.9068 134.9777 15.09566613369736
