CCSDS_OMM_VERS = 2.0
CREATION_DATE  = 
ORIGINATOR     = 

OBJECT_NAME    = ATLAS CENTAUR R/B
OBJECT_ID      = 1972-065B
CENTER_NAME    = EARTH
REF_FRAME      = TEME
TIME_SYSTEM    = UTC
MEAN_ELEMENT_THEORY = SGP/SGP4

EPOCH          = 2025-12-20T13:35:44.926080
MEAN_MOTION    = 14.77428158
ECCENTRICITY   = .0033287
INCLINATION    = 35.0023
RA_OF_ASC_NODE = 49.3497
ARG_OF_PERICENTER = 64.2055
MEAN_ANOMALY   = 296.2074

EPHEMERIS_TYPE = 0
CLASSIFICATION_TYPE = U
NORAD_CAT_ID   = 6155
ELEMENT_SET_NO = 999
REV_AT_EPOCH   = 82955
BSTAR          = .11676E-3
MEAN_MOTION_DOT = .827E-5
MEAN_MOTION_DDOT = 0

CCSDS_OMM_VERS = 2.0
CREATION_DATE  = 
ORIGINATOR     = 

OBJECT_NAME    = SL-8 R/B
OBJECT_ID      = 1975-112B
CENTER_NAME    = EARTH
REF_FRAME      = TEME
TIME_SYSTEM    = UTC
MEAN_ELEMENT_THEORY = SGP/SGP4

EPOCH          = 2025-12-20T11:34:37.573248
MEAN_MOTION    = 14.38150192
ECCENTRICITY   = .00166675
INCLINATION    = 74.0590
RA_OF_ASC_NODE = 164.6162
ARG_OF_PERICENTER = 275.1595
MEAN_ANOMALY   = 84.7657

EPHEMERIS_TYPE = 0
CLASSIFICATION_TYPE = U
NORAD_CAT_ID   = 8459
ELEMENT_SET_NO = 999
REV_AT_EPOCH   = 62048
BSTAR          = .90916744E-4
MEAN_MOTION_DOT = .25E-5
MEAN_MOTION_DDOT = 0

CCSDS_OMM_VERS = 2.0
CREATION_DATE  = 
ORIGINATOR     = 

OBJECT_NAME    = SL-3 R/B
OBJECT_ID      = 1977-057B
CENTER_NAME    = EARTH
REF_FRAME      = TEME
TIME_SYSTEM    = UTC
MEAN_ELEMENT_THEORY = SGP/SGP4

EPOCH          = 2025-12-20T19:08:11.413248
MEAN_MOTION    = 15.43124035
ECCENTRICITY   = .0006988
INCLINATION    = 97.5683
RA_OF_ASC_NODE = 158.4402
ARG_OF_PERICENTER = 199.8707
MEAN_ANOMALY   = 160.2269

EPHEMERIS_TYPE = 0
CLASSIFICATION_TYPE = U
NORAD_CAT_ID   = 10114
ELEMENT_SET_NO = 999
REV_AT_EPOCH   = 65615
BSTAR          = .20479E-3
MEAN_MOTION_DOT = .8978E-4
MEAN_MOTION_DDOT = 0

CCSDS_OMM_VERS = 2.0
CREATION_DATE  = 
ORIGINATOR     = 

OBJECT_NAME    = SEASAT 1
OBJECT_ID      = 1978-064A
CENTER_NAME    = EARTH
REF_FRAME      = TEME
TIME_SYSTEM    = UTC
MEAN_ELEMENT_THEORY = SGP/SGP4

EPOCH          = 2025-12-20T20:17:00.127104
MEAN_MOTION    = 14.46069206
ECCENTRICITY   = .0001426
INCLINATION    = 108.0131
RA_OF_ASC_NODE = 320.0394
ARG_OF_PERICENTER = 253.4398
MEAN_ANOMALY   = 106.6591

EPHEMERIS_TYPE = 0
CLASSIFICATION_TYPE = U
NORAD_CAT_ID   = 10967
ELEMENT_SET_NO = 999
REV_AT_EPOCH   = 49511
BSTAR          = .8703E-4
MEAN_MOTION_DOT = .173E-5
MEAN_MOTION_DDOT = 0

CCSDS_OMM_VERS = 2.0
CREATION_DATE  = 
ORIGINATOR     = 

OBJECT_NAME    = SL-14 R/B
OBJECT_ID      = 1979-011B
CENTER_NAME    = EARTH
REF_FRAME      = TEME
TIME_SYSTEM    = UTC
MEAN_ELEMENT_THEORY = SGP/SGP4

EPOCH          = 2025-12-20T13:39:07.668000
MEAN_MOTION    = 14.91778184
ECCENTRICITY   = .0015231
INCLINATION    = 82.5232
RA_OF_ASC_NODE = 171.6187
ARG_OF_PERICENTER = 326.5377
MEAN_ANOMALY   = 33.4879

EPHEMERIS_TYPE = 0
CLASSIFICATION_TYPE = U
NORAD_CAT_ID   = 11267
ELEMENT_SET_NO = 999
REV_AT_EPOCH   = 51698
BSTAR          = .38789E-4
MEAN_MOTION_DOT = .417E-5
MEAN_MOTION_DDOT = 0

CCSDS_OMM_VERS = 2.0
CREATION_DATE  = 
ORIGINATOR     = 

OBJECT_NAME    = SL-8 R/B
OBJECT_ID      = 1979-089B
CENTER_NAME    = EARTH
REF_FRAME      = TEME
TIME_SYSTEM    = UTC
MEAN_ELEMENT_THEORY = SGP/SGP4

EPOCH          = 2025-12-20T19:30:40.423104
MEAN_MOTION    = 14.42288509
ECCENTRICITY   = .001461
INCLINATION    = 74.0682
RA_OF_ASC_NODE = 237.0375
ARG_OF_PERICENTER = 68.0391
MEAN_ANOMALY   = 292.2317

EPHEMERIS_TYPE = 0
CLASSIFICATION_TYPE = U
NORAD_CAT_ID   = 11574
ELEMENT_SET_NO = 999
REV_AT_EPOCH   = 42473
BSTAR          = .64851E-4
MEAN_MOTION_DOT = .188E-5
MEAN_MOTION_DDOT = 0

CCSDS_OMM_VERS = 2.0
CREATION_DATE  = 
ORIGINATOR     = 

OBJECT_NAME    = SL-14 R/B
OBJECT_ID      = 1980-005B
CENTER_NAME    = EARTH
REF_FRAME      = TEME
TIME_SYSTEM    = UTC
MEAN_ELEMENT_THEORY = SGP/SGP4

EPOCH          = 2025-12-20T01:26:34.823328
MEAN_MOTION    = 14.90799473
ECCENTRICITY   = .0017289
INCLINATION    = 82.5142
RA_OF_ASC_NODE = 22.7564
ARG_OF_PERICENTER = 71.2609
MEAN_ANOMALY   = 289.0485

EPHEMERIS_TYPE = 0
CLASSIFICATION_TYPE = U
NORAD_CAT_ID   = 11672
ELEMENT_SET_NO = 999
REV_AT_EPOCH   = 46462
BSTAR          = .4081605E-4
MEAN_MOTION_DOT = .428E-5
MEAN_MOTION_DDOT = 0

CCSDS_OMM_VERS = 2.0
CREATION_DATE  = 
ORIGINATOR     = 

OBJECT_NAME    = SL-8 R/B
OBJECT_ID      = 1981-003B
CENTER_NAME    = EARTH
REF_FRAME      = TEME
TIME_SYSTEM    = UTC
MEAN_ELEMENT_THEORY = SGP/SGP4

EPOCH          = 2025-12-20T18:30:35.669952
MEAN_MOTION    = 15.07253097
ECCENTRICITY   = .0278547
INCLINATION    = 82.9315
RA_OF_ASC_NODE = 2.8120
ARG_OF_PERICENTER = 92.6427
MEAN_ANOMALY   = 270.6716

EPHEMERIS_TYPE = 0
CLASSIFICATION_TYPE = U
NORAD_CAT_ID   = 12139
ELEMENT_SET_NO = 999
REV_AT_EPOCH   = 30277
BSTAR          = .29166E-3
MEAN_MOTION_DOT = .11042E-3
MEAN_MOTION_DDOT = 0

CCSDS_OMM_VERS = 2.0
CREATION_DATE  = 
ORIGINATOR     = 

OBJECT_NAME    = SL-3 R/B
OBJECT_ID      = 1981-046B
CENTER_NAME    = EARTH
REF_FRAME      = TEME
TIME_SYSTEM    = UTC
MEAN_ELEMENT_THEORY = SGP/SGP4

EPOCH          = 2025-12-20T18:04:20.288640
MEAN_MOTION    = 15.39757737
ECCENTRICITY   = .0018323
INCLINATION    = 81.2319
RA_OF_ASC_NODE = 24.3509
ARG_OF_PERICENTER = 295.3030
MEAN_ANOMALY   = 64.6313

EPHEMERIS_TYPE = 0
CLASSIFICATION_TYPE = U
NORAD_CAT_ID   = 12465
ELEMENT_SET_NO = 999
REV_AT_EPOCH   = 42627
BSTAR          = .18552E-3
MEAN_MOTION_DOT = .7414E-4
MEAN_MOTION_DDOT = 0

CCSDS_OMM_VERS = 2.0
CREATION_DATE  = 
ORIGINATOR     = 

OBJECT_NAME    = SL-3 R/B
OBJECT_ID      = 1981-103B
CENTER_NAME    = EARTH
REF_FRAME      = TEME
TIME_SYSTEM    = UTC
MEAN_ELEMENT_THEORY = SGP/SGP4

EPOCH          = 2025-12-20T19:42:54.315072
MEAN_MOTION    = 15.20318763
ECCENTRICITY   = .0012345
INCLINATION    = 81.1598
RA_OF_ASC_NODE = 305.8875
ARG_OF_PERICENTER = 183.6439
MEAN_ANOMALY   = 176.4705

EPHEMERIS_TYPE = 0
CLASSIFICATION_TYPE = U
NORAD_CAT_ID   = 12904
ELEMENT_SET_NO = 999
REV_AT_EPOCH   = 96124
BSTAR          = .2116E-3
MEAN_MOTION_DOT = .4632E-4
MEAN_MOTION_DDOT = 0

CCSDS_OMM_VERS = 2.0
CREATION_DATE  = 
ORIGINATOR     = 

OBJECT_NAME    = SL-3 R/B
OBJECT_ID      = 1982-013B
CENTER_NAME    = EARTH
REF_FRAME      = TEME
TIME_SYSTEM    = UTC
MEAN_ELEMENT_THEORY = SGP/SGP4

EPOCH          = 2025-12-20T19:12:28.443744
MEAN_MOTION    = 15.21149932
ECCENTRICITY   = .0024183
INCLINATION    = 81.1751
RA_OF_ASC_NODE = 253.1746
ARG_OF_PERICENTER = 85.0347
MEAN_ANOMALY   = 275.3644

EPHEMERIS_TYPE = 0
CLASSIFICATION_TYPE = U
NORAD_CAT_ID   = 13068
ELEMENT_SET_NO = 999
REV_AT_EPOCH   = 39235
BSTAR          = .1528E-3
MEAN_MOTION_DOT = .3455E-4
MEAN_MOTION_DDOT = 0

CCSDS_OMM_VERS = 2.0
CREATION_DATE  = 
ORIGINATOR     = 

OBJECT_NAME    = SL-3 R/B
OBJECT_ID      = 1982-039B
CENTER_NAME    = EARTH
REF_FRAME      = TEME
TIME_SYSTEM    = UTC
MEAN_ELEMENT_THEORY = SGP/SGP4

EPOCH          = 2025-12-20T19:01:04.289664
MEAN_MOTION    = 15.09566613
ECCENTRICITY   = .0029418
INCLINATION    = 81.1714
RA_OF_ASC_NODE = 306.8323
ARG_OF_PERICENTER = 224.9068
MEAN_ANOMALY   = 134.9777

EPHEMERIS_TYPE = 0
CLASSIFICATION_TYPE = U
NORAD_CAT_ID   = 13154
ELEMENT_SET_NO = 999
REV_AT_EPOCH   = 36973
BSTAR          = .11325E-3
MEAN_MOTION_DOT = .1859E-4
MEAN_MOTION_DDOT = 0

